SKYSAT-A                
1 39418U 13066C   22335.46860252  .00001904  00000+0  15435-3 0  9993
2 39418  97.5323  42.2356 0033534  53.3918 307.0382 15.00412847493691
SKYSAT-B                
1 40072U 14037D   22335.42442725  .00000621  00000+0  85694-4 0  9997
2 40072  98.3835 211.9807 0007154 131.3053 228.8775 14.81960198453976
SKYSAT-C1               
1 41601U 16040C   22335.46952876  .00010300  00000+0  26923-3 0  9993
2 41601  97.1395  46.5749 0002280  87.3416 272.8091 15.38943161359674
FLOCK 2P-9              
1 41610U 16040M   22335.40696005  .00054622  00000+0  10440-2 0  9997
2 41610  97.2092  31.3666 0005957 199.9942 160.1076 15.47905355358749
FLOCK 2P-8              
1 41613U 16040Q   22335.41522752  .00050562  00000+0  10070-2 0  9996
2 41613  97.2145  32.3410 0006306 211.3398 148.7477 15.46727837358891
FLOCK 2P-3              
1 41618U 16040V   22335.41638618  .00050071  00000+0  96609-3 0  9998
2 41618  97.2158  33.1187 0005586 214.9544 145.1341 15.47655845358915
SKYSAT-C4               
1 41771U 16058B   22335.43257249  .00008988  00000+0  23591-3 0  9996
2 41771  97.0991  35.5794 0003537 126.1451 234.0122 15.38849613346621
SKYSAT-C5               
1 41772U 16058C   22335.51102325  .00005627  00000+0  20667-3 0  9998
2 41772  97.2455  34.5307 0001519  87.4525 272.6889 15.28312634345272
SKYSAT-C2               
1 41773U 16058D   22335.41492487  .00009175  00000+0  24090-3 0  9995
2 41773  97.1006  35.9657 0002779 122.7675 237.3839 15.38833045346645
SKYSAT-C3               
1 41774U 16058E   22335.39973161  .00014536  00000+0  31169-3 0  9998
2 41774  97.0996  37.3890 0002490 120.3539 239.7957 15.44830867346734
FLOCK 3P-24             
1 41956U 17008J   22335.44716293  .00014191  00000+0  38354-3 0  9993
2 41956  97.2646  43.0801 0005184 334.6769  25.4222 15.37826623322943
FLOCK 3P-4              
1 41965U 17008T   22335.45582209  .00234295  00000+0  22224-2 0  9999
2 41965  97.2498  41.9170 0004223 324.1431  35.9545 15.66164264322804
FLOCK 3P-2              
1 41966U 17008U   22335.45348991  .00152998  00000+0  20482-2 0  9991
2 41966  97.2543  41.1526 0003589 319.9194  40.1797 15.57474977322650
FLOCK 3P-3              
1 41968U 17008W   22335.40650280  .00057196  00000+0  14306-2 0  9997
2 41968  97.2586  39.9546 0005908 352.7070   7.4089 15.39903960322650
FLOCK 3P-12             
1 41972U 17008AA  22335.44837695  .00170292  00000+0  20314-2 0  9992
2 41972  97.2510  41.4635 0003336 312.9513  47.1464 15.60484776322754
FLOCK 3P-11             
1 41975U 17008AD  22335.15536507  .00209964  00000+0  23476-2 0  9992
2 41975  97.2487  41.1184 0003852 313.0731  47.0204 15.62044519322607
FLOCK 3P-57             
1 41978U 17008AG  22335.48601182  .00277534  00000+0  26564-2 0  9992
2 41978  97.2508  42.0878 0004475 316.7031  43.3877 15.65802948322728
FLOCK 3P-34             
1 41988U 17008AS  22335.43503440  .00118969  00000+0  18996-2 0  9992
2 41988  97.2588  41.2993 0004379 312.4859  47.6024 15.52763810322125
FLOCK 3P-33             
1 41990U 17008AU  22335.39731975  .00054606  00000+0  14678-2 0  9996
2 41990  97.2589  37.9209 0005263 350.0623  10.0517 15.37704841321909
FLOCK 3P-49             
1 42001U 17008BF  22335.51469268  .00148980  00000+0  22077-2 0  9998
2 42001  97.2542  41.4271 0002743 342.3875  17.7284 15.54727288322673
FLOCK 3P-61             
1 42009U 17008BP  22335.42929376  .00180390  00000+0  21436-2 0  9996
2 42009  97.2524  41.5154 0003290 331.6058  28.5019 15.60552315322809
FLOCK 3P-54             
1 42014U 17008BU  22335.41248969  .00119989  00000+0  17925-2 0  9997
2 42014  97.2551  41.0035 0002887  15.8796 344.2548 15.54609231322795
FLOCK 3P-23             
1 42018U 17008BY  22335.14403285  .00161057  00000+0  20568-2 0  9995
2 42018  97.2517  40.7519 0003524 316.9796  43.1184 15.58710355321545
FLOCK 3P-76             
1 42019U 17008BZ  22335.52911027  .00125810  00000+0  19274-2 0  9995
2 42019  97.2642  42.2676 0003290 352.9034   7.2173 15.53892064322656
FLOCK 3P-32             
1 42023U 17008CD  22334.96136590  .00155567  00000+0  20838-2 0  9991
2 42023  97.2511  40.7175 0003796 326.8634  33.2383 15.57449773322741
FLOCK 3P-80             
1 42026U 17008CG  22335.43557920  .00109423  00000+0  18151-2 0  9996
2 42026  97.2598  41.5104 0004618   0.5607 359.5650 15.51730334320761
FLOCK 3P-66             
1 42027U 17008CH  22335.41939143  .00136046  00000+0  20013-2 0  9997
2 42027  97.2560  40.8389 0003259 325.3658  34.7383 15.54973789322732
FLOCK 3P-65             
1 42028U 17008CJ  22335.14345422  .00151726  00000+0  20056-2 0  9998
2 42028  97.2518  41.1784 0003554 352.5839   7.5364 15.57820026322623
FLOCK 3P-50             
1 42029U 17008CK  22335.17908761  .00151734  00000+0  20356-2 0  9995
2 42029  97.2552  41.2664 0003153 354.1399   5.9819 15.57423409321949
FLOCK 3P-46             
1 42031U 17008CM  22335.43659913  .00060432  00000+0  10004-2 0  9992
2 42031  97.2554  40.7702 0001862   8.4477 351.6807 15.51988515322792
FLOCK 3P-64             
1 42034U 17008CQ  22335.43879571  .00151620  00000+0  19798-2 0  9998
2 42034  97.2507  41.1755 0003076 350.1563   9.9633 15.58150208322818
FLOCK 3P-55             
1 42041U 17008CX  22335.11885687  .00147056  00000+0  20179-2 0  9999
2 42041  97.2511  40.8330 0003565   6.6596 353.4706 15.56829030322775
FLOCK 3P-74             
1 42048U 17008DE  22335.44618211  .00045314  00000+0  93852-3 0  9992
2 42048  97.2619  41.2497 0004540 334.5304  25.5721 15.45618337321917
SKYSAT-C11              
1 42987U 17068A   22334.95223069  .00010339  00000+0  27047-3 0  9990
2 42987  97.3064  92.9624 0004328 128.0449 232.1188 15.38917181283987
SKYSAT-C10              
1 42988U 17068B   22335.57065937  .00011311  00000+0  29569-3 0  9990
2 42988  97.3117  93.9304 0002994  56.3246 303.8285 15.38919828284107
SKYSAT-C9               
1 42989U 17068C   22335.55606009  .00011672  00000+0  30415-3 0  9992
2 42989  97.3048  92.9290 0000285 124.8615 235.2658 15.39014106284294
SKYSAT-C8               
1 42990U 17068D   22335.29062168  .00010940  00000+0  28568-3 0  9990
2 42990  97.3131  94.0927 0001598   8.3038 351.8234 15.38965738284089
SKYSAT-C7               
1 42991U 17068E   22335.59319256  .00011579  00000+0  30236-3 0  9991
2 42991  97.3132  94.4788 0004531 130.9638 229.2000 15.38943887284134
SKYSAT-C6               
1 42992U 17068F   22335.58435297  .00011416  00000+0  29827-3 0  9999
2 42992  97.3152  94.8963 0005012 114.9552 245.2215 15.38926170284141
FLOCK 3M-4              
1 42997U 17068L   22335.29503253  .00084451  00000+0  18301-2 0  9993
2 42997  97.4720  91.2859 0010345 195.9236 164.1688 15.44063635282478
FLOCK 3P'-3             
1 43119U 18004J   22335.45047260  .00026472  00000+0  88215-3 0  9991
2 43119  97.3597  47.7202 0008849 132.2321 227.9672 15.31042334271725
FLOCK 3P'-2             
1 43120U 18004K   22335.50693503  .00019526  00000+0  66976-3 0  9998
2 43120  97.3604  47.2862 0009372 132.3689 227.8346 15.30163070271696
FLOCK 3P'-4             
1 43122U 18004M   22335.16430334  .00022293  00000+0  75818-3 0  9993
2 43122  97.3610  47.1385 0008794 135.8979 224.2964 15.30418500271644
FLOCK 3R-12             
1 43724U 18096F   22335.48880420  .00170781  00000+0  14932-2 0  9997
2 43724  97.3464  64.1617 0007899 166.1408 194.0072 15.68356857224172
FLOCK 3S-1              
1 43769U 18099M   22335.45590002  .00002286  00000+0  20436-3 0  9991
2 43769  97.6024  36.6603 0015204  76.6250 283.6666 14.96778519217982
SKYSAT-C12              
1 43797U 18099AR  22335.45603722  .00009572  00000+0  25042-3 0  9999
2 43797  97.1078  37.3637 0001277  86.0618 274.0774 15.38934264223158
SKYSAT-C13              
1 43802U 18099AW  22335.39504691  .00009888  00000+0  25156-3 0  9990
2 43802  97.1353  36.3200 0001603  80.2316 279.9112 15.39784424222634
FLOCK 3K-5              
1 43899U 18111Z   22335.44149811  .00260957  00000+0  26202-2 0  9994
2 43899  97.1668 224.0083 0009318 134.1708 226.0319 15.64609429219344
FLOCK 3K-7              
1 43902U 18111AC  22335.43258550  .00182446  00000+0  22215-2 0  9995
2 43902  97.1655 223.8333 0010018 134.6156 225.5920 15.59856776219335
FLOCK 3K-9              
1 43906U 18111AG  22335.47831706  .00092914  00000+0  12388-2 0  9993
2 43906  97.1671 223.8386 0008125 147.5141 212.6617 15.57766250219344
FLOCK 4A-2              
1 44080U 19018C   22335.52390902  .00021690  00000+0  54016-3 0  9996
2 44080  97.2855  34.0296 0006860 213.7303 146.3508 15.40241446204326
FLOCK 4A-17             
1 44088U 19018L   22335.42400726  .00061158  00000+0  13905-2 0  9993
2 44088  97.2901  34.3839 0007923 233.3297 126.7223 15.42756171204327
FLOCK 4A-19             
1 44090U 19018N   22335.44427906  .00068467  00000+0  15150-2 0  9991
2 44090  97.2886  34.4494 0009463 234.5021 125.5345 15.43520630204332
FLOCK 4A-6              
1 44094U 19018S   22335.14486910  .00013859  00000+0  35097-3 0  9990
2 44094  97.2907  34.2238 0006617 230.2264 129.8400 15.39826778204284
FLOCK 4A-5              
1 44095U 19018T   22335.42036812  .00058791  00000+0  13851-2 0  9991
2 44095  97.2900  33.8616 0007084 237.5560 122.5003 15.41704212204281
FLOCK 4A-11             
1 44096U 19018U   22335.11196385  .00015816  00000+0  39867-3 0  9997
2 44096  97.2902  34.3018 0006396 235.7726 124.2914 15.39940504204288
FLOCK 4A-9              
1 44098U 19018W   22335.44809221  .00036382  00000+0  84807-3 0  9990
2 44098  97.2918  34.8020 0006509 244.9239 115.1333 15.42142099204340
FLOCK 4P-10             
1 44808U 19081E   22335.41578254  .00035709  00000+0  10545-2 0  9994
2 44808  97.3807  39.6037 0009509 352.1165   7.9927 15.34834966167438
FLOCK 4P-11             
1 44809U 19081F   22334.74061801  .00010184  00000+0  30980-3 0  9991
2 44809  97.3810  38.9537 0008810 353.9107   6.2027 15.34179896167335
FLOCK 4P-4              
1 44811U 19081H   22335.15736896  .00039139  00000+0  10717-2 0  9999
2 44811  97.3877  40.5992 0007705 340.6307  19.4644 15.37195563167447
